{
  "type": "FeatureCollection",
  "features": [
    {
      "type": "Feature",
      "properties": {
        "norad_id": 33913,
        "name": "COSMOS 2251 DEB",
        "group": "cosmos-2251-debris",
        "lat": 59.99777304431508,
        "lon": -11.959683971410183,
        "alt_km": 758.6350540965814,
        "timestamp": "2025-12-05T04:52:15.683399+00:00",
        "meta_object_name": "COSMOS 2251 DEB",
        "meta_object_id": "1993-036DS",
        "meta_epoch": "2025-12-04T17:01:16.633056",
        "meta_mean_motion": 14.48437945,
        "meta_eccentricity": 0.0048176,
        "meta_inclination": 74.0339,
        "meta_ra_of_asc_node": 198.6893,
        "meta_arg_of_pericenter": 302.6985,
        "meta_mean_anomaly": 119.4376,
        "meta_ephemeris_type": 0,
        "meta_classification_type": "U",
        "meta_norad_cat_id": 33913,
        "meta_element_set_no": 999,
        "meta_rev_at_epoch": 88341,
        "meta_bstar": 0.0010987,
        "meta_mean_motion_dot": 4.152e-05,
        "meta_mean_motion_ddot": 0,
        "tle_line1": "1 33913U 93036DS  25338.70922029  .00004152  00000+0  10987-2 0  9990",
        "tle_line2": "2 33913  74.0339 198.6893 0048176 302.6985 119.4376 14.48437945883414"
      },
      "geometry": {
        "type": "Point",
        "coordinates": [
          -11.959683971410183,
          59.99777304431508
        ]
      }
    },
    {
      "type": "Feature",
      "properties": {
        "norad_id": 33914,
        "name": "COSMOS 2251 DEB",
        "group": "cosmos-2251-debris",
        "lat": -6.756892265127618,
        "lon": 25.579230780478042,
        "alt_km": 1161.63123992086,
        "timestamp": "2025-12-05T04:52:15.683409+00:00",
        "meta_object_name": "COSMOS 2251 DEB",
        "meta_object_id": "1993-036DT",
        "meta_epoch": "2025-12-04T15:28:00.989760",
        "meta_mean_motion": 13.71973427,
        "meta_eccentricity": 0.0301874,
        "meta_inclination": 74.0916,
        "meta_ra_of_asc_node": 28.4356,
        "meta_arg_of_pericenter": 133.4231,
        "meta_mean_anomaly": 344.4981,
        "meta_ephemeris_type": 0,
        "meta_classification_type": "U",
        "meta_norad_cat_id": 33914,
        "meta_element_set_no": 999,
        "meta_rev_at_epoch": 83970,
        "meta_bstar": 0.0010271,
        "meta_mean_motion_dot": 1.27e-05,
        "meta_mean_motion_ddot": 0,
        "tle_line1": "1 33914U 93036DT  25338.64445590  .00001270  00000+0  10271-2 0  9991",
        "tle_line2": "2 33914  74.0916  28.4356 0301874 133.4231 344.4981 13.71973427839701"
      },
      "geometry": {
        "type": "Point",
        "coordinates": [
          25.579230780478042,
          -6.756892265127618
        ]
      }
    },
    {
      "type": "Feature",
      "properties": {
        "norad_id": 33915,
        "name": "COSMOS 2251 DEB",
        "group": "cosmos-2251-debris",
        "lat": -26.606743886654428,
        "lon": -123.84147116443266,
        "alt_km": 748.1046591540917,
        "timestamp": "2025-12-05T04:52:15.683418+00:00",
        "meta_object_name": "COSMOS 2251 DEB",
        "meta_object_id": "1993-036DU",
        "meta_epoch": "2025-12-04T15:16:35.594976",
        "meta_mean_motion": 14.35052184,
        "meta_eccentricity": 0.0104858,
        "meta_inclination": 74.0449,
        "meta_ra_of_asc_node": 48.9571,
        "meta_arg_of_pericenter": 143.6428,
        "meta_mean_anomaly": 17.7847,
        "meta_ephemeris_type": 0,
        "meta_classification_type": "U",
        "meta_norad_cat_id": 33915,
        "meta_element_set_no": 999,
        "meta_rev_at_epoch": 87641,
        "meta_bstar": 0.0010255,
        "meta_mean_motion_dot": 3.086e-05,
        "meta_mean_motion_ddot": 0,
        "tle_line1": "1 33915U 93036DU  25338.63652309  .00003086  00000+0  10255-2 0  9998",
        "tle_line2": "2 33915  74.0449  48.9571 0104858 143.6428  17.7847 14.35052184876412"
      },
      "geometry": {
        "type": "Point",
        "coordinates": [
          -123.84147116443266,
          -26.606743886654428
        ]
      }
    },
    {
      "type": "Feature",
      "properties": {
        "norad_id": 33916,
        "name": "COSMOS 2251 DEB",
        "group": "cosmos-2251-debris",
        "lat": -4.379880900326087,
        "lon": 51.71781102493263,
        "alt_km": 1153.590425589663,
        "timestamp": "2025-12-05T04:52:15.683428+00:00",
        "meta_object_name": "COSMOS 2251 DEB",
        "meta_object_id": "1993-036DV",
        "meta_epoch": "2025-12-04T06:23:09.005280",
        "meta_mean_motion": 13.68598659,
        "meta_eccentricity": 0.0325494,
        "meta_inclination": 74.0531,
        "meta_ra_of_asc_node": 54.5112,
        "meta_arg_of_pericenter": 228.4533,
        "meta_mean_anomaly": 189.9158,
        "meta_ephemeris_type": 0,
        "meta_classification_type": "U",
        "meta_norad_cat_id": 33916,
        "meta_element_set_no": 999,
        "meta_rev_at_epoch": 83775,
        "meta_bstar": 0.0010395,
        "meta_mean_motion_dot": 1.268e-05,
        "meta_mean_motion_ddot": 0,
        "tle_line1": "1 33916U 93036DV  25338.26607645  .00001268  00000+0  10395-2 0  9996",
        "tle_line2": "2 33916  74.0531  54.5112 0325494 228.4533 189.9158 13.68598659837757"
      },
      "geometry": {
        "type": "Point",
        "coordinates": [
          51.71781102493263,
          -4.379880900326087
        ]
      }
    },
    {
      "type": "Feature",
      "properties": {
        "norad_id": 33917,
        "name": "COSMOS 2251 DEB",
        "group": "cosmos-2251-debris",
        "lat": 46.533260364444466,
        "lon": 152.24381973013976,
        "alt_km": 1239.1177490189139,
        "timestamp": "2025-12-05T04:52:15.683437+00:00",
        "meta_object_name": "COSMOS 2251 DEB",
        "meta_object_id": "1993-036DW",
        "meta_epoch": "2025-12-04T11:05:09.672000",
        "meta_mean_motion": 13.69340059,
        "meta_eccentricity": 0.0331095,
        "meta_inclination": 74.1065,
        "meta_ra_of_asc_node": 135.966,
        "meta_arg_of_pericenter": 238.7448,
        "meta_mean_anomaly": 118.0848,
        "meta_ephemeris_type": 0,
        "meta_classification_type": "U",
        "meta_norad_cat_id": 33917,
        "meta_element_set_no": 999,
        "meta_rev_at_epoch": 83620,
        "meta_bstar": 0.0012242,
        "meta_mean_motion_dot": 1.539e-05,
        "meta_mean_motion_ddot": 0,
        "tle_line1": "1 33917U 93036DW  25338.46191750  .00001539  00000+0  12242-2 0  9998",
        "tle_line2": "2 33917  74.1065 135.9660 0331095 238.7448 118.0848 13.69340059836204"
      },
      "geometry": {
        "type": "Point",
        "coordinates": [
          152.24381973013976,
          46.533260364444466
        ]
      }
    },
    {
      "type": "Feature",
      "properties": {
        "norad_id": 33920,
        "name": "COSMOS 2251 DEB",
        "group": "cosmos-2251-debris",
        "lat": -58.35348219437517,
        "lon": 160.3691919273581,
        "alt_km": 700.4893443463161,
        "timestamp": "2025-12-05T04:52:15.683446+00:00",
        "meta_object_name": "COSMOS 2251 DEB",
        "meta_object_id": "1993-036DZ",
        "meta_epoch": "2025-12-03T23:45:57.286368",
        "meta_mean_motion": 14.5801116,
        "meta_eccentricity": 0.00385766,
        "meta_inclination": 74.0629,
        "meta_ra_of_asc_node": 315.0497,
        "meta_arg_of_pericenter": 322.9779,
        "meta_mean_anomaly": 36.8724,
        "meta_ephemeris_type": 0,
        "meta_classification_type": "U",
        "meta_norad_cat_id": 33920,
        "meta_element_set_no": 999,
        "meta_rev_at_epoch": 87987,
        "meta_bstar": 0.0041324358,
        "meta_mean_motion_dot": 0.00019211,
        "meta_mean_motion_ddot": 0,
        "tle_line1": "1 33920U 93036DZ  25337.99024637  .00019211  00000+0  41324-2 0  9997",
        "tle_line2": "2 33920  74.0629 315.0497 0038576 322.9779  36.8724 14.58011160879870"
      },
      "geometry": {
        "type": "Point",
        "coordinates": [
          160.3691919273581,
          -58.35348219437517
        ]
      }
    },
    {
      "type": "Feature",
      "properties": {
        "norad_id": 33922,
        "name": "COSMOS 2251 DEB",
        "group": "cosmos-2251-debris",
        "lat": -71.18065485821634,
        "lon": 38.970007647435615,
        "alt_km": 718.2503952290745,
        "timestamp": "2025-12-05T04:52:15.683456+00:00",
        "meta_object_name": "COSMOS 2251 DEB",
        "meta_object_id": "1993-036EB",
        "meta_epoch": "2025-12-04T14:42:29.458944",
        "meta_mean_motion": 14.49463112,
        "meta_eccentricity": 0.002326,
        "meta_inclination": 74.0458,
        "meta_ra_of_asc_node": 163.0004,
        "meta_arg_of_pericenter": 274.5389,
        "meta_mean_anomaly": 147.3765,
        "meta_ephemeris_type": 0,
        "meta_classification_type": "U",
        "meta_norad_cat_id": 33922,
        "meta_element_set_no": 999,
        "meta_rev_at_epoch": 88460,
        "meta_bstar": 0.0007028,
        "meta_mean_motion_dot": 2.674e-05,
        "meta_mean_motion_ddot": 0,
        "tle_line1": "1 33922U 93036EB  25338.61284096  .00002674  00000+0  70280-3 0  9995",
        "tle_line2": "2 33922  74.0458 163.0004 0023260 274.5389 147.3765 14.49463112884608"
      },
      "geometry": {
        "type": "Point",
        "coordinates": [
          38.970007647435615,
          -71.18065485821634
        ]
      }
    }
  ]
}